{
  "type": "FeatureCollection",
  "features": [
    {
      "type": "Feature",
      "properties": {
        "norad_id": 34971,
        "name": "COSMOS 2251 DEB",
        "group": "cosmos-2251-debris",
        "lat": -65.51590191763209,
        "lon": 146.88362708938524,
        "alt_km": 720.1521856709169,
        "timestamp": "2025-12-11T07:02:24.126588+00:00",
        "meta_object_name": "COSMOS 2251 DEB",
        "meta_object_id": "1993-036AFA",
        "meta_epoch": "2025-12-09T13:13:36.252192",
        "meta_mean_motion": 14.55626239,
        "meta_eccentricity": 0.0069751,
        "meta_inclination": 73.9783,
        "meta_ra_of_asc_node": 291.0727,
        "meta_arg_of_pericenter": 157.5993,
        "meta_mean_anomaly": 326.8397,
        "meta_ephemeris_type": 0,
        "meta_classification_type": "U",
        "meta_norad_cat_id": 34971,
        "meta_element_set_no": 999,
        "meta_rev_at_epoch": 66126,
        "meta_bstar": 0.0003002,
        "meta_mean_motion_dot": 1.323e-05,
        "meta_mean_motion_ddot": 0,
        "tle_line1": "1 34971U 93036AFA 25343.55111403  .00001323  00000+0  30020-3 0  9998",
        "tle_line2": "2 34971  73.9783 291.0727 0069751 157.5993 326.8397 14.55626239661260"
      },
      "geometry": {
        "type": "Point",
        "coordinates": [
          146.88362708938524,
          -65.51590191763209
        ]
      }
    },
    {
      "type": "Feature",
      "properties": {
        "norad_id": 34972,
        "name": "COSMOS 2251 DEB",
        "group": "cosmos-2251-debris",
        "lat": 47.741238277415945,
        "lon": 71.10681619248638,
        "alt_km": 670.0306303654252,
        "timestamp": "2025-12-11T07:02:24.126598+00:00",
        "meta_object_name": "COSMOS 2251 DEB",
        "meta_object_id": "1993-036AFB",
        "meta_epoch": "2025-12-10T15:12:58.563360",
        "meta_mean_motion": 14.72821829,
        "meta_eccentricity": 0.0033911,
        "meta_inclination": 73.9884,
        "meta_ra_of_asc_node": 53.9706,
        "meta_arg_of_pericenter": 213.482,
        "meta_mean_anomaly": 302.6538,
        "meta_ephemeris_type": 0,
        "meta_classification_type": "U",
        "meta_norad_cat_id": 34972,
        "meta_element_set_no": 999,
        "meta_rev_at_epoch": 87619,
        "meta_bstar": 0.0022409,
        "meta_mean_motion_dot": 0.00014465,
        "meta_mean_motion_ddot": 0,
        "tle_line1": "1 34972U 93036AFB 25344.63401115  .00014465  00000+0  22409-2 0  9993",
        "tle_line2": "2 34972  73.9884  53.9706 0033911 213.4820 302.6538 14.72821829876195"
      },
      "geometry": {
        "type": "Point",
        "coordinates": [
          71.10681619248638,
          47.741238277415945
        ]
      }
    },
    {
      "type": "Feature",
      "properties": {
        "norad_id": 34976,
        "name": "COSMOS 2251 DEB",
        "group": "cosmos-2251-debris",
        "lat": 51.448226460803596,
        "lon": 108.05903942062496,
        "alt_km": 656.462935006035,
        "timestamp": "2025-12-11T07:02:24.126609+00:00",
        "meta_object_name": "COSMOS 2251 DEB",
        "meta_object_id": "1993-036AFF",
        "meta_epoch": "2025-12-10T08:25:01.072704",
        "meta_mean_motion": 14.76478285,
        "meta_eccentricity": 0.0047841,
        "meta_inclination": 74.0579,
        "meta_ra_of_asc_node": 310.922,
        "meta_arg_of_pericenter": 358.2108,
        "meta_mean_anomaly": 158.5424,
        "meta_ephemeris_type": 0,
        "meta_classification_type": "U",
        "meta_norad_cat_id": 34976,
        "meta_element_set_no": 999,
        "meta_rev_at_epoch": 88238,
        "meta_bstar": 0.0025157785,
        "meta_mean_motion_dot": 0.00017864,
        "meta_mean_motion_ddot": 0,
        "tle_line1": "1 34976U 93036AFF 25344.35070686  .00017864  00000+0  25158-2 0  9991",
        "tle_line2": "2 34976  74.0579 310.9220 0047841 358.2108 158.5424 14.76478285882381"
      },
      "geometry": {
        "type": "Point",
        "coordinates": [
          108.05903942062496,
          51.448226460803596
        ]
      }
    },
    {
      "type": "Feature",
      "properties": {
        "norad_id": 34979,
        "name": "COSMOS 2251 DEB",
        "group": "cosmos-2251-debris",
        "lat": 19.981548716133357,
        "lon": 84.13616757985467,
        "alt_km": 665.2259113930886,
        "timestamp": "2025-12-11T07:02:24.126619+00:00",
        "meta_object_name": "COSMOS 2251 DEB",
        "meta_object_id": "1993-036AFJ",
        "meta_epoch": "2025-12-10T18:57:42.477408",
        "meta_mean_motion": 14.79287814,
        "meta_eccentricity": 0.00490822,
        "meta_inclination": 74.0395,
        "meta_ra_of_asc_node": 271.0988,
        "meta_arg_of_pericenter": 349.3479,
        "meta_mean_anomaly": 10.6652,
        "meta_ephemeris_type": 0,
        "meta_classification_type": "U",
        "meta_norad_cat_id": 34979,
        "meta_element_set_no": 999,
        "meta_rev_at_epoch": 88191,
        "meta_bstar": 0.0021499612,
        "meta_mean_motion_dot": 0.00016327,
        "meta_mean_motion_ddot": 0,
        "tle_line1": "1 34979U 93036AFJ 25344.79007497  .00016327  00000+0  21500-2 0  9992",
        "tle_line2": "2 34979  74.0395 271.0988 0049082 349.3479  10.6652 14.79287814881917"
      },
      "geometry": {
        "type": "Point",
        "coordinates": [
          84.13616757985467,
          19.981548716133357
        ]
      }
    },
    {
      "type": "Feature",
      "properties": {
        "norad_id": 34990,
        "name": "COSMOS 2251 DEB",
        "group": "cosmos-2251-debris",
        "lat": 73.14770646281684,
        "lon": 3.214294116095129,
        "alt_km": 752.1091007634823,
        "timestamp": "2025-12-11T07:02:24.126630+00:00",
        "meta_object_name": "COSMOS 2251 DEB",
        "meta_object_id": "1993-036AFN",
        "meta_epoch": "2025-12-07T01:03:28.213920",
        "meta_mean_motion": 14.42350123,
        "meta_eccentricity": 0.00162731,
        "meta_inclination": 74.0455,
        "meta_ra_of_asc_node": 261.8923,
        "meta_arg_of_pericenter": 325.0179,
        "meta_mean_anomaly": 34.9906,
        "meta_ephemeris_type": 0,
        "meta_classification_type": "U",
        "meta_norad_cat_id": 34990,
        "meta_element_set_no": 999,
        "meta_rev_at_epoch": 87264,
        "meta_bstar": 0.00072596004,
        "meta_mean_motion_dot": 2.377e-05,
        "meta_mean_motion_ddot": 0,
        "tle_line1": "1 34990U 93036AFN 25341.04407655  .00002377  00000+0  72596-3 0  9992",
        "tle_line2": "2 34990  74.0455 261.8923 0016273 325.0179  34.9906 14.42350123872642"
      },
      "geometry": {
        "type": "Point",
        "coordinates": [
          3.214294116095129,
          73.14770646281684
        ]
      }
    },
    {
      "type": "Feature",
      "properties": {
        "norad_id": 34997,
        "name": "COSMOS 2251 DEB",
        "group": "cosmos-2251-debris",
        "lat": -59.36101873489805,
        "lon": 163.1445715984463,
        "alt_km": 697.9721570873662,
        "timestamp": "2025-12-11T07:02:24.126640+00:00",
        "meta_object_name": "COSMOS 2251 DEB",
        "meta_object_id": "1993-036AFV",
        "meta_epoch": "2025-12-09T15:42:21.613248",
        "meta_mean_motion": 14.45493879,
        "meta_eccentricity": 0.00979027,
        "meta_inclination": 73.8812,
        "meta_ra_of_asc_node": 317.0047,
        "meta_arg_of_pericenter": 292.5764,
        "meta_mean_anomaly": 66.5057,
        "meta_ephemeris_type": 0,
        "meta_classification_type": "U",
        "meta_norad_cat_id": 34997,
        "meta_element_set_no": 999,
        "meta_rev_at_epoch": 70702,
        "meta_bstar": 0.002944294,
        "meta_mean_motion_dot": 0.00010999,
        "meta_mean_motion_ddot": 0,
        "tle_line1": "1 34997U 93036AFV 25343.65441682  .00010999  00000+0  29443-2 0  9997",
        "tle_line2": "2 34997  73.8812 317.0047 0097902 292.5764  66.5057 14.45493879707026"
      },
      "geometry": {
        "type": "Point",
        "coordinates": [
          163.1445715984463,
          -59.36101873489805
        ]
      }
    },
    {
      "type": "Feature",
      "properties": {
        "norad_id": 34998,
        "name": "COSMOS 2251 DEB",
        "group": "cosmos-2251-debris",
        "lat": 68.67091168314023,
        "lon": -64.55284858022301,
        "alt_km": 734.6569731617901,
        "timestamp": "2025-12-11T07:02:24.126650+00:00",
        "meta_object_name": "COSMOS 2251 DEB",
        "meta_object_id": "1993-036AFW",
        "meta_epoch": "2025-12-09T11:37:03.426816",
        "meta_mean_motion": 14.4925952,
        "meta_eccentricity": 0.00210124,
        "meta_inclination": 74.0095,
        "meta_ra_of_asc_node": 166.0998,
        "meta_arg_of_pericenter": 311.9127,
        "meta_mean_anomaly": 76.4992,
        "meta_ephemeris_type": 0,
        "meta_classification_type": "U",
        "meta_norad_cat_id": 34998,
        "meta_element_set_no": 999,
        "meta_rev_at_epoch": 87373,
        "meta_bstar": 0.00089460042,
        "meta_mean_motion_dot": 3.394e-05,
        "meta_mean_motion_ddot": 0,
        "tle_line1": "1 34998U 93036AFW 25343.48406744  .00003394  00000+0  89460-3 0  9996",
        "tle_line2": "2 34998  74.0095 166.0998 0021012 311.9127  76.4992 14.49259520873735"
      },
      "geometry": {
        "type": "Point",
        "coordinates": [
          -64.55284858022301,
          68.67091168314023
        ]
      }
    }
  ]
}